<?xml version="1.0" encoding="UTF-8"?>
<q:quakeml xmlns="http://quakeml.org/xmlns/bed/1.2" xmlns:q="http://quakeml.org/xmlns/quakeml/1.2" xmlns:mars="http://quakeml.org/xmlns/bed/1.2/mars">
  <eventParameters publicID="smi:insight.mqs/EventParameters">
    <event publicID="smi:insight.mqs/mqs2022aamf">
      <description>
        <text>S1101a</text>
        <type>earthquake name</type>
      </description>
      <description>
        <text>Elysium Southwest</text>
        <type>region name</type>
      </description>
      <typeCertainty>suspected</typeCertainty>
      <creationInfo>
        <agencyID>mqs</agencyID>
        <author>scevent@sc3mars-op</author>
        <creationTime>2022-01-03T17:46:34.620011Z</creationTime>
      </creationInfo>
      <origin publicID="smi:insight.mqs/Origin/20220111084501.663319.120539">
        <arrival publicID="smi:insight.mqs/Pick/20220103174557.755318.118530_Origin/20220111084501.663319.120539">
          <azimuth>108.8539635</azimuth>
          <distance>4.951151082E-5</distance>
          <pickID>smi:insight.mqs/Pick/20220103174557.755318.118530</pickID>
          <phase>S_spectral_start</phase>
          <timeWeight>1.0</timeWeight>
        </arrival>
        <arrival publicID="smi:insight.mqs/Pick/20220103174557.754101.118525_Origin/20220111084501.663319.120539">
          <azimuth>108.8539635</azimuth>
          <distance>4.951151082E-5</distance>
          <pickID>smi:insight.mqs/Pick/20220103174557.754101.118525</pickID>
          <phase>noise_end</phase>
          <timeWeight>1.0</timeWeight>
        </arrival>
        <arrival publicID="smi:insight.mqs/Pick/20220103174557.754337.118526_Origin/20220111084501.663319.120539">
          <azimuth>108.8539635</azimuth>
          <distance>4.951151082E-5</distance>
          <pickID>smi:insight.mqs/Pick/20220103174557.754337.118526</pickID>
          <phase>Pg</phase>
          <timeWeight>1.0</timeWeight>
        </arrival>
        <arrival publicID="smi:insight.mqs/Pick/20220103174557.755083.118529_Origin/20220111084501.663319.120539">
          <azimuth>108.8539635</azimuth>
          <distance>4.951151082E-5</distance>
          <pickID>smi:insight.mqs/Pick/20220103174557.755083.118529</pickID>
          <phase>P_spectral_end</phase>
          <timeWeight>1.0</timeWeight>
        </arrival>
        <arrival publicID="smi:insight.mqs/Pick/20220111084501.662869.120537_Origin/20220111084501.663319.120539">
          <azimuth>108.8539635</azimuth>
          <distance>4.951151082E-5</distance>
          <pickID>smi:insight.mqs/Pick/20220111084501.662869.120537</pickID>
          <phase>start</phase>
          <timeWeight>1.0</timeWeight>
        </arrival>
        <arrival publicID="smi:insight.mqs/Pick/20220103174557.755782.118532_Origin/20220111084501.663319.120539">
          <azimuth>108.8539635</azimuth>
          <distance>4.951151082E-5</distance>
          <pickID>smi:insight.mqs/Pick/20220103174557.755782.118532</pickID>
          <phase>Peak_M2.4</phase>
          <timeWeight>1.0</timeWeight>
        </arrival>
        <arrival publicID="smi:insight.mqs/Pick/20220103174557.754601.118527_Origin/20220111084501.663319.120539">
          <azimuth>108.8539635</azimuth>
          <distance>4.951151082E-5</distance>
          <pickID>smi:insight.mqs/Pick/20220103174557.754601.118527</pickID>
          <phase>Sg</phase>
          <timeWeight>1.0</timeWeight>
        </arrival>
        <arrival publicID="smi:insight.mqs/Pick/20220103174557.753857.118524_Origin/20220111084501.663319.120539">
          <azimuth>108.8539635</azimuth>
          <distance>4.951151082E-5</distance>
          <pickID>smi:insight.mqs/Pick/20220103174557.753857.118524</pickID>
          <phase>noise_start</phase>
          <timeWeight>1.0</timeWeight>
        </arrival>
        <arrival publicID="smi:insight.mqs/Pick/20220103174557.755552.118531_Origin/20220111084501.663319.120539">
          <azimuth>108.8539635</azimuth>
          <distance>4.951151082E-5</distance>
          <pickID>smi:insight.mqs/Pick/20220103174557.755552.118531</pickID>
          <phase>S_spectral_end</phase>
          <timeWeight>1.0</timeWeight>
        </arrival>
        <arrival publicID="smi:insight.mqs/Pick/20220103174557.754836.118528_Origin/20220111084501.663319.120539">
          <azimuth>108.8539635</azimuth>
          <distance>4.951151082E-5</distance>
          <pickID>smi:insight.mqs/Pick/20220103174557.754836.118528</pickID>
          <phase>P_spectral_start</phase>
          <timeWeight>1.0</timeWeight>
        </arrival>
        <arrival publicID="smi:insight.mqs/Pick/20220111084501.663098.120538_Origin/20220111084501.663319.120539">
          <azimuth>108.8539635</azimuth>
          <distance>4.951151082E-5</distance>
          <pickID>smi:insight.mqs/Pick/20220111084501.663098.120538</pickID>
          <phase>end</phase>
          <timeWeight>1.0</timeWeight>
        </arrival>
        <time>
          <value>2022-01-01T06:09:48.7112Z</value>
        </time>
        <longitude>
          <value>135.6234</value>
        </longitude>
        <latitude>
          <value>4.5024</value>
        </latitude>
        <quality>
          <depthPhaseCount>0</depthPhaseCount>
        </quality>
        <evaluationMode>manual</evaluationMode>
        <creationInfo>
          <agencyID>mqs</agencyID>
          <author>ah</author>
          <creationTime>2022-01-11T08:45:01.663358Z</creationTime>
        </creationInfo>
        <evaluationStatus>reviewed</evaluationStatus>
        <mars:locationQuality>http://quakeml.org/vocab/marsquake/1.0/MarsLocationQualityType#C</mars:locationQuality>
      </origin>
      <magnitude publicID="smi:insight.mqs/Magnitude/20230331-122231/a2eadd87">
        <mag>
          <value>2.0</value>
          <lowerUncertainty>0.2</lowerUncertainty>
          <upperUncertainty>0.2</upperUncertainty>
        </mag>
        <type>MW</type>
        <originID>smi:insight.mqs/Origin/20220111084501.663319.120539</originID>
      </magnitude>
      <preferredMagnitudeID>smi:insight.mqs/Magnitude/20230331-122231/a2eadd87</preferredMagnitudeID>
      <pick publicID="smi:insight.mqs/Pick/20220103174557.754836.118528">
        <phaseHint>P_spectral_start</phaseHint>
        <evaluationMode>manual</evaluationMode>
        <creationInfo>
          <agencyID>mqs</agencyID>
          <author>cd</author>
          <creationTime>2022-01-03T17:45:57.754941Z</creationTime>
        </creationInfo>
        <time>
          <value>2022-01-01T06:15:26.811030Z</value>
        </time>
        <waveformID networkCode="XB" stationCode="ELYSE" locationCode="02" channelCode="BHN"/>
        <filterID>smi:local/sc3filter/BW(6,2.2,2.8)__STALTA(100,1000)</filterID>
      </pick>
      <pick publicID="smi:insight.mqs/Pick/20220103174557.754101.118525">
        <phaseHint>noise_end</phaseHint>
        <evaluationMode>manual</evaluationMode>
        <creationInfo>
          <agencyID>mqs</agencyID>
          <author>cd</author>
          <creationTime>2022-01-03T17:45:57.754205Z</creationTime>
        </creationInfo>
        <time>
          <value>2022-01-01T06:13:09.095707Z</value>
        </time>
        <waveformID networkCode="XB" stationCode="ELYSE" locationCode="02" channelCode="BHN"/>
        <filterID>smi:local/sc3filter/BW(6,2.2,2.8)__STALTA(100,1000)</filterID>
      </pick>
      <pick publicID="smi:insight.mqs/Pick/20220111084501.662869.120537">
        <phaseHint>start</phaseHint>
        <evaluationMode>manual</evaluationMode>
        <creationInfo>
          <agencyID>mqs</agencyID>
          <author>ah</author>
          <creationTime>2022-01-11T08:45:01.663030Z</creationTime>
        </creationInfo>
        <time>
          <value>2022-01-01T06:14:48.711271Z</value>
        </time>
        <waveformID networkCode="XB" stationCode="ELYSE" locationCode="02" channelCode="BHZ"/>
        <filterID>smi:local/sc3filter/BW(6,2.2,2.8)__STALTA(100,1000)</filterID>
      </pick>
      <pick publicID="smi:insight.mqs/Pick/20220103174557.754601.118527">
        <phaseHint>Sg</phaseHint>
        <evaluationMode>manual</evaluationMode>
        <creationInfo>
          <agencyID>mqs</agencyID>
          <author>cd</author>
          <creationTime>2022-01-03T17:45:57.754705Z</creationTime>
        </creationInfo>
        <time>
          <value>2022-01-01T06:19:04.626081Z</value>
          <lowerUncertainty>20.0</lowerUncertainty>
          <upperUncertainty>20.0</upperUncertainty>
        </time>
        <waveformID networkCode="XB" stationCode="ELYSE" locationCode="02" channelCode="BHN"/>
        <filterID>smi:local/sc3filter/BW(6,2.2,2.8)__STALTA(100,1000)</filterID>
      </pick>
      <pick publicID="smi:insight.mqs/Pick/20220103174557.753857.118524">
        <phaseHint>noise_start</phaseHint>
        <evaluationMode>manual</evaluationMode>
        <creationInfo>
          <agencyID>mqs</agencyID>
          <author>cd</author>
          <creationTime>2022-01-03T17:45:57.753967Z</creationTime>
        </creationInfo>
        <time>
          <value>2022-01-01T06:08:16.801963Z</value>
        </time>
        <waveformID networkCode="XB" stationCode="ELYSE" locationCode="02" channelCode="BHN"/>
        <filterID>smi:local/sc3filter/BW(6,2.2,2.8)__STALTA(100,1000)</filterID>
      </pick>
      <pick publicID="smi:insight.mqs/Pick/20220103174557.755083.118529">
        <phaseHint>P_spectral_end</phaseHint>
        <evaluationMode>manual</evaluationMode>
        <creationInfo>
          <agencyID>mqs</agencyID>
          <author>cd</author>
          <creationTime>2022-01-03T17:45:57.755190Z</creationTime>
        </creationInfo>
        <time>
          <value>2022-01-01T06:16:28.642399Z</value>
        </time>
        <waveformID networkCode="XB" stationCode="ELYSE" locationCode="02" channelCode="BHN"/>
        <filterID>smi:local/sc3filter/BW(6,2.2,2.8)__STALTA(100,1000)</filterID>
      </pick>
      <pick publicID="smi:insight.mqs/Pick/20220103174557.755552.118531">
        <phaseHint>S_spectral_end</phaseHint>
        <evaluationMode>manual</evaluationMode>
        <creationInfo>
          <agencyID>mqs</agencyID>
          <author>cd</author>
          <creationTime>2022-01-03T17:45:57.755656Z</creationTime>
        </creationInfo>
        <time>
          <value>2022-01-01T06:24:02.540860Z</value>
        </time>
        <waveformID networkCode="XB" stationCode="ELYSE" locationCode="02" channelCode="BHN"/>
        <filterID>smi:local/sc3filter/BW(6,2.2,2.8)__STALTA(100,1000)</filterID>
      </pick>
      <pick publicID="smi:insight.mqs/Pick/20220103174557.755782.118532">
        <phaseHint>Peak_M2.4</phaseHint>
        <evaluationMode>manual</evaluationMode>
        <creationInfo>
          <agencyID>mqs</agencyID>
          <author>cd</author>
          <creationTime>2022-01-03T17:45:57.755885Z</creationTime>
        </creationInfo>
        <time>
          <value>2022-01-01T06:19:53.342172Z</value>
        </time>
        <waveformID networkCode="XB" stationCode="ELYSE" locationCode="02" channelCode="BHN"/>
        <filterID>smi:local/sc3filter/BW(6,2.2,2.8)__INT(0)</filterID>
      </pick>
      <pick publicID="smi:insight.mqs/Pick/20220103174557.755318.118530">
        <phaseHint>S_spectral_start</phaseHint>
        <evaluationMode>manual</evaluationMode>
        <creationInfo>
          <agencyID>mqs</agencyID>
          <author>cd</author>
          <creationTime>2022-01-03T17:45:57.755423Z</creationTime>
        </creationInfo>
        <time>
          <value>2022-01-01T06:19:29.920732Z</value>
        </time>
        <waveformID networkCode="XB" stationCode="ELYSE" locationCode="02" channelCode="BHN"/>
        <filterID>smi:local/sc3filter/BW(6,2.2,2.8)__STALTA(100,1000)</filterID>
      </pick>
      <pick publicID="smi:insight.mqs/Pick/20220111084501.663098.120538">
        <phaseHint>end</phaseHint>
        <evaluationMode>manual</evaluationMode>
        <creationInfo>
          <agencyID>mqs</agencyID>
          <author>ah</author>
          <creationTime>2022-01-11T08:45:01.663151Z</creationTime>
        </creationInfo>
        <time>
          <value>2022-01-01T06:29:41.653863Z</value>
        </time>
        <waveformID networkCode="XB" stationCode="ELYSE" locationCode="02" channelCode="BHZ"/>
        <filterID>smi:local/sc3filter/BW(6,2.2,2.8)__STALTA(100,1000)</filterID>
      </pick>
      <pick publicID="smi:insight.mqs/Pick/20220103174557.754337.118526">
        <phaseHint>Pg</phaseHint>
        <evaluationMode>manual</evaluationMode>
        <creationInfo>
          <agencyID>mqs</agencyID>
          <author>cd</author>
          <creationTime>2022-01-03T17:45:57.754460Z</creationTime>
        </creationInfo>
        <time>
          <value>2022-01-01T06:14:58.705862Z</value>
          <lowerUncertainty>10.0</lowerUncertainty>
          <upperUncertainty>10.0</upperUncertainty>
        </time>
        <waveformID networkCode="XB" stationCode="ELYSE" locationCode="02" channelCode="BHN"/>
        <filterID>smi:local/sc3filter/BW(6,2.2,2.8)__STALTA(100,1000)</filterID>
      </pick>
      <preferredOriginID>smi:insight.mqs/Origin/20220111084501.663319.120539</preferredOriginID>
      <type>other event</type>
      <mars:type>http://quakeml.org/vocab/marsquake/1.0/MarsEventType#HIGH_FREQUENCY</mars:type>
      <mars:typeCertainty>suspected</mars:typeCertainty>
      <mars:snr snrMQS="4.1"/>
    </event>
    <event publicID="smi:insight.mqs/mqs2022aggz">
      <description>
        <text>S1104c</text>
        <type>earthquake name</type>
      </description>
      <description>
        <text>Elysium Southwest</text>
        <type>region name</type>
      </description>
      <typeCertainty>suspected</typeCertainty>
      <creationInfo>
        <agencyID>mqs</agencyID>
        <author>scevent@sc3mars-op</author>
        <creationTime>2022-01-07T11:09:38.311292Z</creationTime>
      </creationInfo>
      <origin publicID="smi:insight.mqs/Origin/20220111085512.838659.132283">
        <arrival publicID="smi:insight.mqs/Pick/20220107110752.630738.59330_Origin/20220111085512.838659.132283">
          <azimuth>108.8539635</azimuth>
          <distance>4.951151082E-5</distance>
          <pickID>smi:insight.mqs/Pick/20220107110752.630738.59330</pickID>
          <phase>P_spectral_end</phase>
          <timeWeight>1.0</timeWeight>
        </arrival>
        <arrival publicID="smi:insight.mqs/Pick/20220107110752.630077.59324_Origin/20220111085512.838659.132283">
          <azimuth>108.8539635</azimuth>
          <distance>4.951151082E-5</distance>
          <pickID>smi:insight.mqs/Pick/20220107110752.630077.59324</pickID>
          <phase>Peak_M2.4</phase>
          <timeWeight>1.0</timeWeight>
        </arrival>
        <arrival publicID="smi:insight.mqs/Pick/20220107110752.630309.59326_Origin/20220111085512.838659.132283">
          <azimuth>108.8539635</azimuth>
          <distance>4.951151082E-5</distance>
          <pickID>smi:insight.mqs/Pick/20220107110752.630309.59326</pickID>
          <phase>end</phase>
          <timeWeight>1.0</timeWeight>
        </arrival>
        <arrival publicID="smi:insight.mqs/Pick/20220111085512.837955.132280_Origin/20220111085512.838659.132283">
          <azimuth>108.8539635</azimuth>
          <distance>4.951151082E-5</distance>
          <pickID>smi:insight.mqs/Pick/20220111085512.837955.132280</pickID>
          <phase>noise_start</phase>
          <timeWeight>1.0</timeWeight>
        </arrival>
        <arrival publicID="smi:insight.mqs/Pick/20220107110752.630842.59331_Origin/20220111085512.838659.132283">
          <azimuth>108.8539635</azimuth>
          <distance>4.951151082E-5</distance>
          <pickID>smi:insight.mqs/Pick/20220107110752.630842.59331</pickID>
          <phase>S_spectral_start</phase>
          <timeWeight>1.0</timeWeight>
        </arrival>
        <arrival publicID="smi:insight.mqs/Pick/20220107110752.630635.59329_Origin/20220111085512.838659.132283">
          <azimuth>108.8539635</azimuth>
          <distance>4.951151082E-5</distance>
          <pickID>smi:insight.mqs/Pick/20220107110752.630635.59329</pickID>
          <phase>P_spectral_start</phase>
          <timeWeight>1.0</timeWeight>
        </arrival>
        <arrival publicID="smi:insight.mqs/Pick/20220107110752.630955.59332_Origin/20220111085512.838659.132283">
          <azimuth>108.8539635</azimuth>
          <distance>4.951151082E-5</distance>
          <pickID>smi:insight.mqs/Pick/20220107110752.630955.59332</pickID>
          <phase>S_spectral_end</phase>
          <timeWeight>1.0</timeWeight>
        </arrival>
        <arrival publicID="smi:insight.mqs/Pick/20220107110752.629607.59322_Origin/20220111085512.838659.132283">
          <azimuth>108.8539635</azimuth>
          <distance>4.951151082E-5</distance>
          <pickID>smi:insight.mqs/Pick/20220107110752.629607.59322</pickID>
          <phase>Pg</phase>
          <timeWeight>1.0</timeWeight>
        </arrival>
        <arrival publicID="smi:insight.mqs/Pick/20220111085512.838203.132281_Origin/20220111085512.838659.132283">
          <azimuth>108.8539635</azimuth>
          <distance>4.951151082E-5</distance>
          <pickID>smi:insight.mqs/Pick/20220111085512.838203.132281</pickID>
          <phase>noise_end</phase>
          <timeWeight>1.0</timeWeight>
        </arrival>
        <arrival publicID="smi:insight.mqs/Pick/20220107110752.630201.59325_Origin/20220111085512.838659.132283">
          <azimuth>108.8539635</azimuth>
          <distance>4.951151082E-5</distance>
          <pickID>smi:insight.mqs/Pick/20220107110752.630201.59325</pickID>
          <phase>start</phase>
          <timeWeight>1.0</timeWeight>
        </arrival>
        <arrival publicID="smi:insight.mqs/Pick/20220111085512.838362.132282_Origin/20220111085512.838659.132283">
          <azimuth>108.8539635</azimuth>
          <distance>4.951151082E-5</distance>
          <pickID>smi:insight.mqs/Pick/20220111085512.838362.132282</pickID>
          <phase>Sg</phase>
          <timeWeight>1.0</timeWeight>
        </arrival>
        <time>
          <value>2022-01-04T10:20:48.4516Z</value>
        </time>
        <longitude>
          <value>135.6234</value>
        </longitude>
        <latitude>
          <value>4.5024</value>
        </latitude>
        <quality>
          <depthPhaseCount>0</depthPhaseCount>
        </quality>
        <evaluationMode>manual</evaluationMode>
        <creationInfo>
          <agencyID>mqs</agencyID>
          <author>ah</author>
          <creationTime>2022-01-11T08:55:12.838702Z</creationTime>
        </creationInfo>
        <evaluationStatus>reviewed</evaluationStatus>
        <mars:locationQuality>http://quakeml.org/vocab/marsquake/1.0/MarsLocationQualityType#C</mars:locationQuality>
      </origin>
      <magnitude publicID="smi:insight.mqs/Magnitude/20230331-122230/5d92a2b2">
        <mag>
          <value>2.0</value>
          <lowerUncertainty>0.2</lowerUncertainty>
          <upperUncertainty>0.2</upperUncertainty>
        </mag>
        <type>MW</type>
        <originID>smi:insight.mqs/Origin/20220111085512.838659.132283</originID>
      </magnitude>
      <preferredMagnitudeID>smi:insight.mqs/Magnitude/20230331-122230/5d92a2b2</preferredMagnitudeID>
      <pick publicID="smi:insight.mqs/Pick/20220107110752.630201.59325">
        <phaseHint>start</phaseHint>
        <evaluationMode>manual</evaluationMode>
        <creationInfo>
          <agencyID>mqs</agencyID>
          <author>dk</author>
          <creationTime>2022-01-07T11:07:52.630248Z</creationTime>
        </creationInfo>
        <time>
          <value>2022-01-04T10:25:48.451681Z</value>
        </time>
        <waveformID networkCode="XB" stationCode="ELYSE" locationCode="02" channelCode="BHZ"/>
        <filterID>smi:local/sc3filter/BW(6,2.2,2.8)__INT(0)</filterID>
      </pick>
      <pick publicID="smi:insight.mqs/Pick/20220107110752.630309.59326">
        <phaseHint>end</phaseHint>
